{"type": "FeatureCollection", "features": [ {"type": "Feature", "properties": {"norad_id": 34761, "name": "COSMOS 2251 DEB", "group": "cosmos-2251-debris", "lat": 40.637605270783894, "lon": 32.537543704707176, "alt_km": 736.3647388523359, "timestamp": "2025-12-04T07:39:36.526891+00:00", "meta": {"OBJECT_NAME": "COSMOS 2251 DEB", "OBJECT_ID": "1993-036AAF", "EPOCH": "2025-12-03T11:25:40.179072", "MEAN_MOTION": 14.37997313, "ECCENTRICITY": 0.00360917, "INCLINATION": 74.03, "RA_OF_ASC_NODE": 19.8628, "ARG_OF_PERICENTER": 56.9515, "MEAN_ANOMALY": 303.5096, "EPHEMERIS_TYPE": 0, "CLASSIFICATION_TYPE": "U", "NORAD_CAT_ID": 34761, "ELEMENT_SET_NO": 999, "REV_AT_EPOCH": 87516, "BSTAR": 0.00082876209, "MEAN_MOTION_DOT": 2.5e-05, "MEAN_MOTION_DDOT": 0}, "tle": {"line1": "1 34761U 93036AAF 25337.47615948  .00002500  00000+0  82876-3 0  9996", "line2": "2 34761  74.0300  19.8628 0036091  56.9515 303.5096 14.37997313875161"}}, "geometry": {"type": "Point", "coordinates": [32.537543704707176, 40.637605270783894]}}, {"type": "Feature", "properties": {"norad_id": 34784, "name": "COSMOS 2251 DEB", "group": "cosmos-2251-debris", "lat": -51.21979857562038, "lon": -40.439517319113854, "alt_km": 728.9177750034451, "timestamp": "2025-12-04T07:39:36.526900+00:00", "meta": {"OBJECT_NAME": "COSMOS 2251 DEB", "OBJECT_ID": "1993-036AAM", "EPOCH": "2025-12-03T10:32:30.705792", "MEAN_MOTION": 14.60709262, "ECCENTRICITY": 0.00497778, "INCLINATION": 74.0068, "RA_OF_ASC_NODE": 342.1579, "ARG_OF_PERICENTER": 154.2454, "MEAN_ANOMALY": 206.1207, "EPHEMERIS_TYPE": 0, "CLASSIFICATION_TYPE": "U", "NORAD_CAT_ID": 34784, "ELEMENT_SET_NO": 999, "REV_AT_EPOCH": 88399, "BSTAR": 0.00066780942, "MEAN_MOTION_DOT": 3.283e-05, "MEAN_MOTION_DDOT": 0}, "tle": {"line1": "1 34784U 93036AAM 25337.43924428  .00003283  00000+0  66781-3 0  9999", "line2": "2 34784  74.0068 342.1579 0049777 154.2454 206.1207 14.60709262883995"}}, "geometry": {"type": "Point", "coordinates": [-40.439517319113854, -51.21979857562038]}}, {"type": "Feature", "properties": {"norad_id": 34790, "name": "COSMOS 2251 DEB", "group": "cosmos-2251-debris", "lat": 73.83844515211796, "lon": -20.552580015668426, "alt_km": 843.6903176206706, "timestamp": "2025-12-04T07:39:36.526909+00:00", "meta": {"OBJECT_NAME": "COSMOS 2251 DEB", "OBJECT_ID": "1993-036AAT", "EPOCH": "2025-12-02T20:07:24.488832", "MEAN_MOTION": 14.2457003, "ECCENTRICITY": 0.01006839, "INCLINATION": 74.0549, "RA_OF_ASC_NODE": 261.5318, "ARG_OF_PERICENTER": 325.2539, "MEAN_ANOMALY": 90.5192, "EPHEMERIS_TYPE": 0, "CLASSIFICATION_TYPE": "U", "NORAD_CAT_ID": 34790, "ELEMENT_SET_NO": 999, "REV_AT_EPOCH": 86432, "BSTAR": 0.0013780227, "MEAN_MOTION_DOT": 3.347e-05, "MEAN_MOTION_DDOT": 0}, "tle": {"line1": "1 34790U 93036AAT 25336.83847788  .00003347  00000+0  13780-2 0  9993", "line2": "2 34790  74.0549 261.5318 0100683 325.2539  90.5192 14.24570030864322"}}, "geometry": {"type": "Point", "coordinates": [-20.552580015668426, 73.83844515211796]}}, {"type": "Feature", "properties": {"norad_id": 34792, "name": "COSMOS 2251 DEB", "group": "cosmos-2251-debris", "lat": 12.594046671158353, "lon": 2.017811551458729, "alt_km": 710.8762505765508, "timestamp": "2025-12-04T07:39:36.526918+00:00", "meta": {"OBJECT_NAME": "COSMOS 2251 DEB", "OBJECT_ID": "1993-036AAV", "EPOCH": "2025-12-03T18:16:07.387968", "MEAN_MOTION": 14.55837126, "ECCENTRICITY": 0.00125867, "INCLINATION": 74.0178, "RA_OF_ASC_NODE": 186.7474, "ARG_OF_PERICENTER": 280.4071, "MEAN_ANOMALY": 203.3349, "EPHEMERIS_TYPE": 0, "CLASSIFICATION_TYPE": "U", "NORAD_CAT_ID": 34792, "ELEMENT_SET_NO": 999, "REV_AT_EPOCH": 87519, "BSTAR": 0.001285145, "MEAN_MOTION_DOT": 5.617e-05, "MEAN_MOTION_DDOT": 0}, "tle": {"line1": "1 34792U 93036AAV 25337.76119662  .00005617  00000+0  12851-2 0  9991", "line2": "2 34792  74.0178 186.7474 0012586 280.4071 203.3349 14.55837126875191"}}, "geometry": {"type": "Point", "coordinates": [2.017811551458729, 12.594046671158353]}}, {"type": "Feature", "properties": {"norad_id": 34793, "name": "COSMOS 2251 DEB", "group": "cosmos-2251-debris", "lat": 65.40558913527207, "lon": 47.111844284283855, "alt_km": 731.683952386772, "timestamp": "2025-12-04T07:39:36.526927+00:00", "meta": {"OBJECT_NAME": "COSMOS 2251 DEB", "OBJECT_ID": "1993-036AAW", "EPOCH": "2025-12-03T05:02:37.810176", "MEAN_MOTION": 14.38617586, "ECCENTRICITY": 0.0049962, "INCLINATION": 74.0027, "RA_OF_ASC_NODE": 267.9715, "ARG_OF_PERICENTER": 64.663, "MEAN_ANOMALY": 62.5123, "EPHEMERIS_TYPE": 0, "CLASSIFICATION_TYPE": "U", "NORAD_CAT_ID": 34793, "ELEMENT_SET_NO": 999, "REV_AT_EPOCH": 87193, "BSTAR": 0.00040338, "MEAN_MOTION_DOT": 1.227e-05, "MEAN_MOTION_DDOT": 0}, "tle": {"line1": "1 34793U 93036AAW 25337.21015984  .00001227  00000+0  40338-3 0  9999", "line2": "2 34793  74.0027 267.9715 0049962  64.6630  62.5123 14.38617586871936"}}, "geometry": {"type": "Point", "coordinates": [47.111844284283855, 65.40558913527207]}}, {"type": "Feature", "properties": {"norad_id": 34796, "name": "COSMOS 2251 DEB", "group": "cosmos-2251-debris", "lat": -70.05529786430417, "lon": 104.23194080325592, "alt_km": 721.8114680016897, "timestamp": "2025-12-04T07:39:36.526936+00:00", "meta": {"OBJECT_NAME": "COSMOS 2251 DEB", "OBJECT_ID": "1993-036AAZ", "EPOCH": "2025-12-03T19:09:30.718080", "MEAN_MOTION": 14.48608984, "ECCENTRICITY": 0.01001155, "INCLINATION": 74.031, "RA_OF_ASC_NODE": 233.1064, "ARG_OF_PERICENTER": 337.1333, "MEAN_ANOMALY": 86.4739, "EPHEMERIS_TYPE": 0, "CLASSIFICATION_TYPE": "U", "NORAD_CAT_ID": 34796, "ELEMENT_SET_NO": 999, "REV_AT_EPOCH": 87898, "BSTAR": 0.0011714627, "MEAN_MOTION_DOT": 4.668e-05, "MEAN_MOTION_DDOT": 0}, "tle": {"line1": "1 34796U 93036AAZ 25337.79827220  .00004668  00000+0  11715-2 0  9997", "line2": "2 34796  74.0310 233.1064 0100115 337.1333  86.4739 14.48608984878985"}}, "geometry": {"type": "Point", "coordinates": [104.23194080325592, -70.05529786430417]}}, {"type": "Feature", "properties": {"norad_id": 34797, "name": "COSMOS 2251 DEB", "group": "cosmos-2251-debris", "lat": -21.127925489532025, "lon": -57.954593229914146, "alt_km": 709.3857063769156, "timestamp": "2025-12-04T07:39:36.526945+00:00", "meta": {"OBJECT_NAME": "COSMOS 2251 DEB", "OBJECT_ID": "1993-036ABA", "EPOCH": "2025-12-02T16:26:28.609440", "MEAN_MOTION": 14.42535201, "ECCENTRICITY": 0.00725247, "INCLINATION": 73.9763, "RA_OF_ASC_NODE": 118.7115, "ARG_OF_PERICENTER": 233.7261, "MEAN_ANOMALY": 125.7182, "EPHEMERIS_TYPE": 0, "CLASSIFICATION_TYPE": "U", "NORAD_CAT_ID": 34797, "ELEMENT_SET_NO": 999, "REV_AT_EPOCH": 87270, "BSTAR": 0.0028458232, "MEAN_MOTION_DOT": 9.728e-05, "MEAN_MOTION_DDOT": 0}, "tle": {"line1": "1 34797U 93036ABA 25336.68505335  .00009728  00000+0  28458-2 0  9999", "line2": "2 34797  73.9763 118.7115 0072524 233.7261 125.7182 14.42535201872702"}}, "geometry": {"type": "Point", "coordinates": [-57.954593229914146, -21.127925489532025]}}, {"type": "Feature", "properties": {"norad_id": 34814, "name": "COSMOS 2251 DEB", "group": "cosmos-2251-debris", "lat": 2.7079383104741033, "lon": -18.161508092862665, "alt_km": 797.7699747230781, "timestamp": "2025-12-04T07:39:36.526954+00:00", "meta": {"OBJECT_NAME": "COSMOS 2251 DEB", "OBJECT_ID": "1993-036ABD", "EPOCH": "2025-12-02T11:13:46.501248", "MEAN_MOTION": 14.36815971, "ECCENTRICITY": 0.00568423, "INCLINATION": 73.8957, "RA_OF_ASC_NODE": 344.4866, "ARG_OF_PERICENTER": 235.7348, "MEAN_ANOMALY": 274.6986, "EPHEMERIS_TYPE": 0, "CLASSIFICATION_TYPE": "U", "NORAD_CAT_ID": 34814, "ELEMENT_SET_NO": 999, "REV_AT_EPOCH": 87185, "BSTAR": 0.0010643945, "MEAN_MOTION_DOT": 3.176e-05, "MEAN_MOTION_DDOT": 0}, "tle": {"line1": "1 34814U 93036ABD 25336.46789932  .00003176  00000+0  10644-2 0  9991", "line2": "2 34814  73.8957 344.4866 0056842 235.7348 274.6986 14.36815971871859"}}, "geometry": {"type": "Point", "coordinates": [-18.161508092862665, 2.7079383104741033]}}, {"type": "Feature", "properties": {"norad_id": 34815, "name": "COSMOS 2251 DEB", "group": "cosmos-2251-debris", "lat": -13.85625378999485, "lon": -105.71438526542725, "alt_km": 599.83540733679, "timestamp": "2025-12-04T07:39:36.526963+00:00", "meta": {"OBJECT_NAME": "COSMOS 2251 DEB", "OBJECT_ID": "1993-036ABE", "EPOCH": "2025-12-03T13:51:22.817952", "MEAN_MOTION": 14.78088557, "ECCENTRICITY": 0.00590507, "INCLINATION": 74.0463, "RA_OF_ASC_NODE": 259.7872, "ARG_OF_PERICENTER": 330.9325, "MEAN_ANOMALY": 28.8566, "EPHEMERIS_TYPE": 0, "CLASSIFICATION_TYPE": "U", "NORAD_CAT_ID": 34815, "ELEMENT_SET_NO": 999, "REV_AT_EPOCH": 88492, "BSTAR": 0.001634406, "MEAN_MOTION_DOT": 0.00012155, "MEAN_MOTION_DDOT": 0}, "tle": {"line1": "1 34815U 93036ABE 25337.57734743  .00012155  00000+0  16344-2 0  9995", "line2": "2 34815  74.0463 259.7872 0059050 330.9325  28.8566 14.78088557884920"}}, "geometry": {"type": "Point", "coordinates": [-105.71438526542725, -13.85625378999485]}}, {"type": "Feature", "properties": {"norad_id": 34816, "name": "COSMOS 2251 DEB", "group": "cosmos-2251-debris", "lat": -26.162293349442145, "lon": 148.69745398174192, "alt_km": 1132.740034266014, "timestamp": "2025-12-04T07:39:36.526973+00:00", "meta": {"OBJECT_NAME": "COSMOS 2251 DEB", "OBJECT_ID": "1993-036ABF", "EPOCH": "2025-12-03T06:10:46.926048", "MEAN_MOTION": 13.58283045, "ECCENTRICITY": 0.0373745, "INCLINATION": 73.8861, "RA_OF_ASC_NODE": 158.593, "ARG_OF_PERICENTER": 224.7049, "MEAN_ANOMALY": 314.4822, "EPHEMERIS_TYPE": 0, "CLASSIFICATION_TYPE": "U", "NORAD_CAT_ID": 34816, "ELEMENT_SET_NO": 999, "REV_AT_EPOCH": 82654, "BSTAR": 0.0013936, "MEAN_MOTION_DOT": 1.573e-05, "MEAN_MOTION_DDOT": 0}, "tle": {"line1": "1 34816U 93036ABF 25337.25748757  .00001573  00000+0  13936-2 0  9997", "line2": "2 34816  73.8861 158.5930 0373745 224.7049 314.4822 13.58283045826543"}}, "geometry": {"type": "Point", "coordinates": [148.69745398174192, -26.162293349442145]}}]}